{
  "type": "FeatureCollection",
  "features": [
    {
      "type": "Feature",
      "properties": {
        "norad_id": 29930,
        "name": "FENGYUN 1C DEB",
        "group": "fengyun-1c-debris",
        "lat": -65.84828017770099,
        "lon": 43.58509501627698,
        "alt_km": 893.1022101995959,
        "timestamp": "2025-12-27T19:21:59.022682+00:00",
        "meta_object_name": "FENGYUN 1C DEB",
        "meta_object_id": "1999-025JC",
        "meta_epoch": "2025-12-27T06:55:03.803808",
        "meta_mean_motion": 14.20835424,
        "meta_eccentricity": 0.0164129,
        "meta_inclination": 99.0435,
        "meta_ra_of_asc_node": 243.8587,
        "meta_arg_of_pericenter": 12.1613,
        "meta_mean_anomaly": 105.2409,
        "meta_ephemeris_type": 0,
        "meta_classification_type": "U",
        "meta_norad_cat_id": 29930,
        "meta_element_set_no": 999,
        "meta_rev_at_epoch": 98097,
        "meta_bstar": 0.00030239,
        "meta_mean_motion_dot": 7.01e-06,
        "meta_mean_motion_ddot": 0,
        "tle_line1": "1 29930U 99025JC  25361.28823847  .00000701  00000+0  30239-3 0  9994",
        "tle_line2": "2 29930  99.0435 243.8587 0164129  12.1613 105.2409 14.20835424980976"
      },
      "geometry": {
        "type": "Point",
        "coordinates": [
          43.58509501627698,
          -65.84828017770099
        ]
      }
    },
    {
      "type": "Feature",
      "properties": {
        "norad_id": 29931,
        "name": "FENGYUN 1C DEB",
        "group": "fengyun-1c-debris",
        "lat": 52.649468465497286,
        "lon": 24.941948977853052,
        "alt_km": 851.7859588832562,
        "timestamp": "2025-12-27T19:21:59.022691+00:00",
        "meta_object_name": "FENGYUN 1C DEB",
        "meta_object_id": "1999-025JD",
        "meta_epoch": "2025-12-27T02:08:47.019840",
        "meta_mean_motion": 14.03906171,
        "meta_eccentricity": 0.00324292,
        "meta_inclination": 98.8588,
        "meta_ra_of_asc_node": 36.0341,
        "meta_arg_of_pericenter": 54.6924,
        "meta_mean_anomaly": 334.6454,
        "meta_ephemeris_type": 0,
        "meta_classification_type": "U",
        "meta_norad_cat_id": 29931,
        "meta_element_set_no": 999,
        "meta_rev_at_epoch": 97014,
        "meta_bstar": 0.00013241751,
        "meta_mean_motion_dot": 1.67e-06,
        "meta_mean_motion_ddot": 0,
        "tle_line1": "1 29931U 99025JD  25361.08943310  .00000167  00000+0  13242-3 0  9992",
        "tle_line2": "2 29931  98.8588  36.0341 0032429  54.6924 334.6454 14.03906171970141"
      },
      "geometry": {
        "type": "Point",
        "coordinates": [
          24.941948977853052,
          52.649468465497286
        ]
      }
    },
    {
      "type": "Feature",
      "properties": {
        "norad_id": 29932,
        "name": "FENGYUN 1C DEB",
        "group": "fengyun-1c-debris",
        "lat": 55.516118269528235,
        "lon": -155.17347600331456,
        "alt_km": 833.4889221544772,
        "timestamp": "2025-12-27T19:21:59.022700+00:00",
        "meta_object_name": "FENGYUN 1C DEB",
        "meta_object_id": "1999-025JE",
        "meta_epoch": "2025-12-26T19:53:50.034048",
        "meta_mean_motion": 14.16779542,
        "meta_eccentricity": 0.00380893,
        "meta_inclination": 98.6338,
        "meta_ra_of_asc_node": 11.098,
        "meta_arg_of_pericenter": 30.7149,
        "meta_mean_anomaly": 147.5172,
        "meta_ephemeris_type": 0,
        "meta_classification_type": "U",
        "meta_norad_cat_id": 29932,
        "meta_element_set_no": 999,
        "meta_rev_at_epoch": 97783,
        "meta_bstar": 0.00031210082,
        "meta_mean_motion_dot": 5.86e-06,
        "meta_mean_motion_ddot": 0,
        "tle_line1": "1 29932U 99025JE  25360.82905132  .00000586  00000+0  31210-3 0  9994",
        "tle_line2": "2 29932  98.6338  11.0980 0038089  30.7149 147.5172 14.16779542977832"
      },
      "geometry": {
        "type": "Point",
        "coordinates": [
          -155.17347600331456,
          55.516118269528235
        ]
      }
    },
    {
      "type": "Feature",
      "properties": {
        "norad_id": 29933,
        "name": "FENGYUN 1C DEB",
        "group": "fengyun-1c-debris",
        "lat": -4.1896876262810006,
        "lon": 106.63516191563465,
        "alt_km": 675.2540453786814,
        "timestamp": "2025-12-27T19:21:59.022709+00:00",
        "meta_object_name": "FENGYUN 1C DEB",
        "meta_object_id": "1999-025JF",
        "meta_epoch": "2025-12-27T06:31:53.237280",
        "meta_mean_motion": 14.66375103,
        "meta_eccentricity": 0.000589,
        "meta_inclination": 98.7479,
        "meta_ra_of_asc_node": 105.4192,
        "meta_arg_of_pericenter": 279.2503,
        "meta_mean_anomaly": 135.0772,
        "meta_ephemeris_type": 0,
        "meta_classification_type": "U",
        "meta_norad_cat_id": 29933,
        "meta_element_set_no": 999,
        "meta_rev_at_epoch": 98718,
        "meta_bstar": 0.0036883,
        "meta_mean_motion_dot": 0.00020389,
        "meta_mean_motion_ddot": 0,
        "tle_line1": "1 29933U 99025JF  25361.27214395  .00020389  00000+0  36883-2 0  9992",
        "tle_line2": "2 29933  98.7479 105.4192 0005890 279.2503 135.0772 14.66375103987188"
      },
      "geometry": {
        "type": "Point",
        "coordinates": [
          106.63516191563465,
          -4.1896876262810006
        ]
      }
    },
    {
      "type": "Feature",
      "properties": {
        "norad_id": 29934,
        "name": "FENGYUN 1C DEB",
        "group": "fengyun-1c-debris",
        "lat": 17.555582027434408,
        "lon": -127.27799329780808,
        "alt_km": 628.9361876438334,
        "timestamp": "2025-12-27T19:21:59.022718+00:00",
        "meta_object_name": "FENGYUN 1C DEB",
        "meta_object_id": "1999-025JG",
        "meta_epoch": "2025-12-27T02:13:05.904480",
        "meta_mean_motion": 14.63922233,
        "meta_eccentricity": 0.01011656,
        "meta_inclination": 98.9026,
        "meta_ra_of_asc_node": 49.108,
        "meta_arg_of_pericenter": 207.9751,
        "meta_mean_anomaly": 151.5989,
        "meta_ephemeris_type": 0,
        "meta_classification_type": "U",
        "meta_norad_cat_id": 29934,
        "meta_element_set_no": 999,
        "meta_rev_at_epoch": 99982,
        "meta_bstar": 0.0010687468,
        "meta_mean_motion_dot": 5.966e-05,
        "meta_mean_motion_ddot": 0,
        "tle_line1": "1 29934U 99025JG  25361.09242945  .00005966  00000+0  10687-2 0  9993",
        "tle_line2": "2 29934  98.9026  49.1080 0101165 207.9751 151.5989 14.63922233999820"
      },
      "geometry": {
        "type": "Point",
        "coordinates": [
          -127.27799329780808,
          17.555582027434408
        ]
      }
    },
    {
      "type": "Feature",
      "properties": {
        "norad_id": 29935,
        "name": "FENGYUN 1C DEB",
        "group": "fengyun-1c-debris",
        "lat": 60.45513784756257,
        "lon": -101.56060072563722,
        "alt_km": 774.4189739650656,
        "timestamp": "2025-12-27T19:21:59.022726+00:00",
        "meta_object_name": "FENGYUN 1C DEB",
        "meta_object_id": "1999-025JH",
        "meta_epoch": "2025-12-27T10:25:35.360256",
        "meta_mean_motion": 14.14247102,
        "meta_eccentricity": 0.0150947,
        "meta_inclination": 98.4597,
        "meta_ra_of_asc_node": 62.8639,
        "meta_arg_of_pericenter": 173.8325,
        "meta_mean_anomaly": 210.5105,
        "meta_ephemeris_type": 0,
        "meta_classification_type": "U",
        "meta_norad_cat_id": 29935,
        "meta_element_set_no": 999,
        "meta_rev_at_epoch": 97750,
        "meta_bstar": 0.00015593,
        "meta_mean_motion_dot": 2.92e-06,
        "meta_mean_motion_ddot": 0,
        "tle_line1": "1 29935U 99025JH  25361.43443704  .00000292  00000+0  15593-3 0  9997",
        "tle_line2": "2 29935  98.4597  62.8639 0150947 173.8325 210.5105 14.14247102977509"
      },
      "geometry": {
        "type": "Point",
        "coordinates": [
          -101.56060072563722,
          60.45513784756257
        ]
      }
    },
    {
      "type": "Feature",
      "properties": {
        "norad_id": 29936,
        "name": "FENGYUN 1C DEB",
        "group": "fengyun-1c-debris",
        "lat": -41.7369666748535,
        "lon": -72.57286450706758,
        "alt_km": 764.882657965818,
        "timestamp": "2025-12-27T19:21:59.022735+00:00",
        "meta_object_name": "FENGYUN 1C DEB",
        "meta_object_id": "1999-025JJ",
        "meta_epoch": "2025-12-27T06:37:56.684928",
        "meta_mean_motion": 14.35329761,
        "meta_eccentricity": 0.0114652,
        "meta_inclination": 98.6564,
        "meta_ra_of_asc_node": 114.706,
        "meta_arg_of_pericenter": 144.1545,
        "meta_mean_anomaly": 216.7403,
        "meta_ephemeris_type": 0,
        "meta_classification_type": "U",
        "meta_norad_cat_id": 29936,
        "meta_element_set_no": 999,
        "meta_rev_at_epoch": 99139,
        "meta_bstar": 0.00020668,
        "meta_mean_motion_dot": 5.92e-06,
        "meta_mean_motion_ddot": 0,
        "tle_line1": "1 29936U 99025JJ  25361.27635052  .00000592  00000+0  20668-3 0  9991",
        "tle_line2": "2 29936  98.6564 114.7060 0114652 144.1545 216.7403 14.35329761991396"
      },
      "geometry": {
        "type": "Point",
        "coordinates": [
          -72.57286450706758,
          -41.7369666748535
        ]
      }
    }
  ]
}